[{"OBJECT_NAME":"SUOMI-100","OBJECT_ID":"2018-099AY","EPOCH":"2026-03-09T16:23:06.300384","MEAN_MOTION":15.25995383,"ECCENTRICITY":0.00089691,"INCLINATION":97.4315,"RA_OF_ASC_NODE":129.5602,"ARG_OF_PERICENTER":269.9465,"MEAN_ANOMALY":90.0745,"EPHEMERIS_TYPE":0,"CLASSIFICATION_TYPE":"U","NORAD_CAT_ID":43804,"ELEMENT_SET_NO":999,"REV_AT_EPOCH":39823,"BSTAR":0.00054773118,"MEAN_MOTION_DOT":0.00014037,"MEAN_MOTION_DDOT":0},{"OBJECT_NAME":"STARLINK-36150","OBJECT_ID":"2025-294B","EPOCH":"2026-03-09T22:43:51.334752","MEAN_MOTION":15.27592931,"ECCENTRICITY":0.00015739,"INCLINATION":42.9987,"RA_OF_ASC_NODE":36.1864,"ARG_OF_PERICENTER":48.7834,"MEAN_ANOMALY":311.3153,"EPHEMERIS_TYPE":0,"CLASSIFICATION_TYPE":"U","NORAD_CAT_ID":67031,"ELEMENT_SET_NO":999,"REV_AT_EPOCH":1484,"BSTAR":0.00089319049,"MEAN_MOTION_DOT":0.00024408,"MEAN_MOTION_DDOT":0}]
